VDNH-80                 
1 44392U 19038G   21297.17019716  .00002619  00000-0  14659-3 0  9992
2 44392  97.6026 261.4329 0019410 225.3412 258.9791 15.14201846127064
D-STAR ONE (LIGHTSAT)   
1 44393U 19038H   21296.62420928  .00001921  00000-0  10879-3 0  9998
2 44393  97.6048 260.7568 0019774 227.8913 132.0637 15.14108946127172
AMGU-1 (AMURSAT)        
1 44394U 19038J   21296.90405809  .00002267  00000-0  12763-3 0  9999
2 44394  97.6036 260.9766 0019879 227.3298 132.6259 15.14121070127213
DOT-1                   
1 44399U 19038P   21296.88009114  .00001469  00000-0  86516-4 0  9991
2 44399  97.6073 260.2734 0022766 231.9212 127.9966 15.13024497127152
SOKRAT                  
1 44404U 19038U   21296.87201547  .00002189  00000-0  12397-3 0  9996
2 44404  97.6039 260.6828 0019971 229.0629 130.8874 15.13956692127199
LUCKY-7                 
1 44406U 19038W   21296.87702918  .00001566  00000-0  91225-4 0  9992
2 44406  97.6066 260.5278 0022689 223.9306 136.0122 15.13329641127163
D-STAR ONE (EXOCONNECT) 
1 44410U 19038AA  21296.95841420  .00003260  00000-0  17762-3 0  9994
2 44410  97.6007 261.1654 0019486 225.4961 134.4679 15.14981025127242
NARSSCUBE-2             
1 44415U 19022E   21296.73010591  .00001397  00000-0  56968-4 0  9996
2 44415  51.6414 180.4398 0010409 285.4078  74.5753 15.31623771123803
KRAKSAT                 
1 44427U 98067QM  21297.21589289  .00064765  00000-0  37291-3 0  9999
2 44427  51.6420   1.7599 0005085  12.4902  24.7203 15.78068626131729
NARSSCUBE-1             
1 44792U 98067QX  21296.70446321  .00106050  00000-0  53466-3 0  9992
2 44792  51.6353  14.8248 0006478  15.6047 344.5153 15.80792064109733
DUCHIFAT-3              
1 44854U 19089C   21297.03563642  .00001198  00000-0  10155-3 0  9996
2 44854  36.9651  60.1153 0006955  92.2091 267.9453 14.99716713102413
OPS-SAT                 
1 44878U 19092F   21296.77331990  .00001984  00000-0  10362-3 0  9998
2 44878  97.4770 118.4649 0015094  84.8141 275.4815 15.16974286102289
FLORIPASAT-1            
1 44885U 19093G   21297.01077310  .00000592  00000-0  80430-4 0  9996
2 44885  97.9183  15.1708 0013432 239.7125 120.2745 14.82424991 99814
HUSKYSAT-1 (HO-107)     
1 45119U 19071J   21296.75847508  .00005284  00000-0  15405-3 0  9999
2 45119  51.6396 134.2840 0010860  37.5093 322.6647 15.37008345 96894
G-SAT                   
1 45597U 98067RK  21296.66091680  .00028687  00000-0  31385-3 0  9990
2 45597  51.6397  43.9714 0002966  63.5342 296.5956 15.63056583 84621
QUETZAL-1               
1 45598U 98067RL  21296.66044990  .00042265  00000-0  38839-3 0  9992
2 45598  51.6386  40.2023 0001646   4.7593 355.3418 15.67259602 84608
BY70-2                  
1 45857U 20042B   21297.14047400  .00002029  00000-0  29183-3 0  9997
2 45857  97.9762  11.5319 0012027 154.2101 205.9702 14.77435603 70548
SALSAT                  
1 46495U 20068K   21296.90640049  .00001682  00000-0  12718-3 0  9995
2 46495  97.6989 233.6973 0017047   2.1268 358.0027 15.03615384 58632
NETSAT-4                
1 46504U 20068U   21296.79328767  .00000185  00000-0  18646-4 0  9997
2 46504  97.6962 232.6398 0014643  43.2629 316.9743 15.02273330 58504
NETSAT-3                
1 46505U 20068V   21296.80301029  .00000411  00000-0  35746-4 0  9994
2 46505  97.7000 232.6056 0014585  56.3719 303.8894 15.02259654 58516
NETSAT-1                
1 46506U 20068W   21296.81252639  .00000714  00000-0  58742-4 0  9995
2 46506  97.7003 232.5710 0012691  70.4444 289.8150 15.02235251 58519
NETSAT-2                
1 46507U 20068X   21296.81832922  .00000827  00000-0  67304-4 0  9994
2 46507  97.6995 232.5709 0011560  79.6485 280.6042 15.02211674 58463
BY70-3                  
1 46839U 20079N   21297.19283248  .00005353  00000-0  16056-3 0  9993
2 46839  97.2295   8.5011 0008702 103.0997 312.2338 15.34851909 53945
SPOC                    
1 46921U 98067RR  21296.60255101  .00017856  00000-0  24102-3 0  9991
2 46921  51.6414  55.6178 0001309 221.4905 138.5988 15.57856980 54817
BOBCAT-1                
1 46922U 98067RS  21296.73450185  .00030528  00000-0  35290-3 0  9996
2 46922  51.6423  51.2810 0001507 272.3569  87.7252 15.61602409 54846
NEUTRON-1               
1 46923U 98067RT  21296.75703048  .00018976  00000-0  25691-3 0  9995
2 46923  51.6418  55.1464 0001466 240.6564 119.4282 15.57729231 54862
1998-067RU              
1 46924U 98067RU  21296.71032951  .00088446  00000-0  64651-3 0  9998
2 46924  51.6353  42.7690 0005009 321.0923  38.9714 15.72464188 54997
DESCENT                 
1 46927U 98067RX  21296.63329484  .00017683  00000-0  23953-3 0  9997
2 46927  51.6423  55.8159 0001938 258.4196 101.6579 15.57769497 54750
UVSQ-SAT                
1 47438U 21006AB  21296.72570354  .00001593  00000-0  92422-4 0  9999
2 47438  97.4729 355.5787 0013057  22.2462 337.9333 15.13510157 41454
SOMP2B                  
1 47445U 21006AJ  21296.75427307  .00001423  00000-0  83394-4 0  9999
2 47445  97.4701 355.4405 0012784  25.9541 334.2328 15.13331267 41459
WARP-01                 
1 47924U 98067SA  21296.75695044  .00026741  00000-0  37750-3 0  9991
2 47924  51.6417  61.1183 0004273 239.5625 120.4944 15.56367156 34747
RSP-01                  
1 47925U 98067SB  21296.73722865  .00019214  00000-0  28478-3 0  9996
2 47925  51.6422  61.7490 0001084 162.5537 197.5492 15.55263710 34715
TAUSAT-1                
1 47926U 98067SC  21296.63536409  .00025547  00000-0  35631-3 0  9998
2 47926  51.6407  61.0594 0001635 162.9861 197.1185 15.56727616 34708
TSURU                   
1 47927U 98067SD  21296.63844809  .00017074  00000-0  25888-3 0  9994
2 47927  51.6423  62.5888 0001279 155.3995 204.7057 15.54731249 34693
STARS-EC                
1 47928U 98067SE  21296.63540284  .00028041  00000-0  39337-3 0  9995
2 47928  51.6417  61.8099 0004947 242.2875 117.7615 15.56507878 34684
MAYA-2                  
1 47929U 98067SF  21296.63439586  .00017109  00000-0  25924-3 0  9998
2 47929  51.6420  62.5605 0001338 150.3260 209.7807 15.54747162 34650
HIROGARI (OPUSAT-II)    
1 47930U 98067SG  21296.77131977  .00031252  00000-0  42670-3 0  9990
2 47930  51.6415  60.4799 0000451 164.8534 195.2472 15.57188997 34730
GUARANISAT-1            
1 47931U 98067SH  21296.56777949  .00017009  00000-0  25751-3 0  9998
2 47931  51.6426  62.8694 0001356 148.5607 211.5465 15.54775738 34688
DIY-1 (ARDUIQUBE)       
1 47963U 21022AH  21296.72674291  .00003671  00000-0  24144-3 0  9999
2 47963  97.5459 196.7586 0017672 223.4349 136.5488 15.08073592 31225
